{"type": "FeatureCollection", "features": [{"type": "Feature", "geometry": {"type": "Point", "coordinates": [99.65524, 9.05888]}, "properties": {"site_id": "TH-0001", "site_name": "Zinc site 1", "commodity": "Zinc", "status": "active mine", "grade_pct": 1.14, "discovered": 1961}}, {"type": "Feature", "geometry": {"type": "Point", "coordinates": [99.19283, 13.17819]}, "properties": {"site_id": "TH-0002", "site_name": "Tin site 2", "commodity": "Tin", "status": "prospect", "grade_pct": 2.7, "discovered": 2003}}, {"type": "Feature", "geometry": {"type": "Point", "coordinates": [99.20761, 14.40328]}, "properties": {"site_id": "TH-0003", "site_name": "Potash site 3", "commodity": "Potash", "status": "active mine", "grade_pct": 1.53, "discovered": 2004}}, {"type": "Feature", "geometry": {"type": "Point", "coordinates": [100.19005, 8.07]}, "properties": {"site_id": "TH-0004", "site_name": "Tungsten site 4", "commodity": "Tungsten", "status": "abandoned", "grade_pct": 0.41, "discovered": 1995}}, {"type": "Feature", "geometry": {"type": "Point", "coordinates": [104.34945, 14.6144]}, "properties": {"site_id": "TH-0005", "site_name": "Potash site 5", "commodity": "Potash", "status": "occurrence", "grade_pct": 6.36, "discovered": 1998}}, {"type": "Feature", "geometry": {"type": "Point", "coordinates": [100.31322, 15.58456]}, "properties": {"site_id": "TH-0006", "site_name": "Zinc site 6", "commodity": "Zinc", "status": "active mine", "grade_pct": 1.2, "discovered": 1981}}, {"type": "Feature", "geometry": {"type": "Point", "coordinates": [101.96699, 15.79537]}, "properties": {"site_id": "TH-0007", "site_name": "Potash site 7", "commodity": "Potash", "status": "active mine", "grade_pct": 0.71, "discovered": 1977}}, {"type": "Feature", "geometry": {"type": "Point", "coordinates": [98.54497, 16.67684]}, "properties": {"site_id": "TH-0008", "site_name": "Limestone site 8", "commodity": "Limestone", "status": "occurrence", "grade_pct": 2.48, "discovered": 1978}}, {"type": "Feature", "geometry": {"type": "Point", "coordinates": [101.44683, 16.83442]}, "properties": {"site_id": "TH-0009", "site_name": "Potash site 9", "commodity": "Potash", "status": "prospect", "grade_pct": 2.32, "discovered": 2004}}, {"type": "Feature", "geometry": {"type": "Point", "coordinates": [99.4616, 13.8771]}, "properties": {"site_id": "TH-0010", "site_name": "Fluorite site 10", "commodity": "Fluorite", "status": "active mine", "grade_pct": 1.71, "discovered": 1984}}, {"type": "Feature", "geometry": {"type": "Point", "coordinates": [99.8067, 8.1091]}, "properties": {"site_id": "TH-0011", "site_name": "Tin site 11", "commodity": "Tin", "status": "abandoned", "grade_pct": 1.01, "discovered": 1988}}, {"type": "Feature", "geometry": {"type": "Point", "coordinates": [99.03107, 11.25914]}, "properties": {"site_id": "TH-0012", "site_name": "Tin site 12", "commodity": "Tin", "status": "active mine", "grade_pct": 1.3, "discovered": 1964}}, {"type": "Feature", "geometry": {"type": "Point", "coordinates": [97.87499, 18.61894]}, "properties": {"site_id": "TH-0013", "site_name": "Fluorite site 13", "commodity": "Fluorite", "status": "active mine", "grade_pct": 5.64, "discovered": 2018}}, {"type": "Feature", "geometry": {"type": "Point", "coordinates": [101.29732, 13.82713]}, "properties": {"site_id": "TH-0014", "site_name": "Gold site 14", "commodity": "Gold", "status": "occurrence", "grade_pct": 3.09, "discovered": 1989}}, {"type": "Feature", "geometry": {"type": "Point", "coordinates": [100.67174, 15.60663]}, "properties": {"site_id": "TH-0015", "site_name": "Gold site 15", "commodity": "Gold", "status": "occurrence", "grade_pct": 0.51, "discovered": 1993}}, {"type": "Feature", "geometry": {"type": "Point", "coordinates": [99.68351, 12.88705]}, "properties": {"site_id": "TH-0016", "site_name": "Limestone site 16", "commodity": "Limestone", "status": "occurrence", "grade_pct": 0.51, "discovered": 2002}}, {"type": "Feature", "geometry": {"type": "Point", "coordinates": [101.2296, 16.44451]}, "properties": {"site_id": "TH-0017", "site_name": "Gypsum site 17", "commodity": "Gypsum", "status": "active mine", "grade_pct": 1.59, "discovered": 1974}}, {"type": "Feature", "geometry": {"type": "Point", "coordinates": [98.95971, 12.34976]}, "properties": {"site_id": "TH-0018", "site_name": "Limestone site 18", "commodity": "Limestone", "status": "abandoned", "grade_pct": 0.66, "discovered": 1959}}, {"type": "Feature", "geometry": {"type": "Point", "coordinates": [100.68853, 6.65608]}, "properties": {"site_id": "TH-0019", "site_name": "Gold site 19", "commodity": "Gold", "status": "occurrence", "grade_pct": 0.22, "discovered": 2008}}, {"type": "Feature", "geometry": {"type": "Point", "coordinates": [99.73904, 15.97024]}, "properties": {"site_id": "TH-0020", "site_name": "Zinc site 20", "commodity": "Zinc", "status": "occurrence", "grade_pct": 0.51, "discovered": 1957}}, {"type": "Feature", "geometry": {"type": "Point", "coordinates": [102.14928, 13.71605]}, "properties": {"site_id": "TH-0021", "site_name": "Zinc site 21", "commodity": "Zinc", "status": "active mine", "grade_pct": 0.31, "discovered": 2017}}, {"type": "Feature", "geometry": {"type": "Point", "coordinates": [98.69095, 19.82737]}, "properties": {"site_id": "TH-0022", "site_name": "Tin site 22", "commodity": "Tin", "status": "prospect", "grade_pct": 2.3, "discovered": 2022}}, {"type": "Feature", "geometry": {"type": "Point", "coordinates": [99.41897, 14.47998]}, "properties": {"site_id": "TH-0023", "site_name": "Gypsum site 23", "commodity": "Gypsum", "status": "occurrence", "grade_pct": 1.64, "discovered": 1990}}, {"type": "Feature", "geometry": {"type": "Point", "coordinates": [100.64544, 15.60668]}, "properties": {"site_id": "TH-0024", "site_name": "Gold site 24", "commodity": "Gold", "status": "abandoned", "grade_pct": 1.1, "discovered": 2018}}, {"type": "Feature", "geometry": {"type": "Point", "coordinates": [99.14787, 9.67193]}, "properties": {"site_id": "TH-0025", "site_name": "Fluorite site 25", "commodity": "Fluorite", "status": "active mine", "grade_pct": 2.28, "discovered": 1970}}, {"type": "Feature", "geometry": {"type": "Point", "coordinates": [100.99311, 13.73098]}, "properties": {"site_id": "TH-0026", "site_name": "Gold site 26", "commodity": "Gold", "status": "active mine", "grade_pct": 1.68, "discovered": 1963}}, {"type": "Feature", "geometry": {"type": "Point", "coordinates": [102.3596, 16.27714]}, "properties": {"site_id": "TH-0027", "site_name": "Tin site 27", "commodity": "Tin", "status": "abandoned", "grade_pct": 1.01, "discovered": 1956}}, {"type": "Feature", "geometry": {"type": "Point", "coordinates": [103.72318, 15.10186]}, "properties": {"site_id": "TH-0028", "site_name": "Gold site 28", "commodity": "Gold", "status": "occurrence", "grade_pct": 1.13, "discovered": 1951}}, {"type": "Feature", "geometry": {"type": "Point", "coordinates": [98.31737, 19.59774]}, "properties": {"site_id": "TH-0029", "site_name": "Gypsum site 29", "commodity": "Gypsum", "status": "prospect", "grade_pct": 1.46, "discovered": 2024}}, {"type": "Feature", "geometry": {"type": "Point", "coordinates": [102.99295, 15.53723]}, "properties": {"site_id": "TH-0030", "site_name": "Gold site 30", "commodity": "Gold", "status": "occurrence", "grade_pct": 2.15, "discovered": 1970}}, {"type": "Feature", "geometry": {"type": "Point", "coordinates": [99.58781, 17.29567]}, "properties": {"site_id": "TH-0031", "site_name": "Tin site 31", "commodity": "Tin", "status": "active mine", "grade_pct": 1.88, "discovered": 2008}}, {"type": "Feature", "geometry": {"type": "Point", "coordinates": [100.2672, 17.77983]}, "properties": {"site_id": "TH-0032", "site_name": "Potash site 32", "commodity": "Potash", "status": "prospect", "grade_pct": 0.18, "discovered": 1985}}, {"type": "Feature", "geometry": {"type": "Point", "coordinates": [100.2794, 13.23732]}, "properties": {"site_id": "TH-0033", "site_name": "Gypsum site 33", "commodity": "Gypsum", "status": "abandoned", "grade_pct": 2.37, "discovered": 1963}}, {"type": "Feature", "geometry": {"type": "Point", "coordinates": [101.66335, 17.57506]}, "properties": {"site_id": "TH-0034", "site_name": "Gypsum site 34", "commodity": "Gypsum", "status": "prospect", "grade_pct": 0.82, "discovered": 1992}}, {"type": "Feature", "geometry": {"type": "Point", "coordinates": [102.50987, 15.48546]}, "properties": {"site_id": "TH-0035", "site_name": "Tin site 35", "commodity": "Tin", "status": "abandoned", "grade_pct": 1.03, "discovered": 1991}}, {"type": "Feature", "geometry": {"type": "Point", "coordinates": [105.11098, 15.68884]}, "properties": {"site_id": "TH-0036", "site_name": "Fluorite site 36", "commodity": "Fluorite", "status": "abandoned", "grade_pct": 0.46, "discovered": 1988}}, {"type": "Feature", "geometry": {"type": "Point", "coordinates": [102.15588, 15.3587]}, "properties": {"site_id": "TH-0037", "site_name": "Limestone site 37", "commodity": "Limestone", "status": "occurrence", "grade_pct": 1.64, "discovered": 1971}}, {"type": "Feature", "geometry": {"type": "Point", "coordinates": [102.8436, 14.84121]}, "properties": {"site_id": "TH-0038", "site_name": "Tin site 38", "commodity": "Tin", "status": "prospect", "grade_pct": 1.36, "discovered": 1975}}, {"type": "Feature", "geometry": {"type": "Point", "coordinates": [103.9937, 15.96031]}, "properties": {"site_id": "TH-0039", "site_name": "Limestone site 39", "commodity": "Limestone", "status": "prospect", "grade_pct": 0.39, "discovered": 2017}}, {"type": "Feature", "geometry": {"type": "Point", "coordinates": [102.42375, 16.3014]}, "properties": {"site_id": "TH-0040", "site_name": "Limestone site 40", "commodity": "Limestone", "status": "occurrence", "grade_pct": 0.95, "discovered": 1981}}, {"type": "Feature", "geometry": {"type": "Point", "coordinates": [99.36182, 12.22214]}, "properties": {"site_id": "TH-0041", "site_name": "Zinc site 41", "commodity": "Zinc", "status": "prospect", "grade_pct": 0.63, "discovered": 2019}}, {"type": "Feature", "geometry": {"type": "Point", "coordinates": [99.15441, 11.85707]}, "properties": {"site_id": "TH-0042", "site_name": "Gold site 42", "commodity": "Gold", "status": "occurrence", "grade_pct": 0.86, "discovered": 2003}}, {"type": "Feature", "geometry": {"type": "Point", "coordinates": [100.59371, 17.03902]}, "properties": {"site_id": "TH-0043", "site_name": "Fluorite site 43", "commodity": "Fluorite", "status": "active mine", "grade_pct": 0.44, "discovered": 2003}}, {"type": "Feature", "geometry": {"type": "Point", "coordinates": [101.81341, 16.52566]}, "properties": {"site_id": "TH-0044", "site_name": "Potash site 44", "commodity": "Potash", "status": "prospect", "grade_pct": 0.98, "discovered": 2012}}, {"type": "Feature", "geometry": {"type": "Point", "coordinates": [98.75337, 12.6239]}, "properties": {"site_id": "TH-0045", "site_name": "Tin site 45", "commodity": "Tin", "status": "active mine", "grade_pct": 3.93, "discovered": 1953}}, {"type": "Feature", "geometry": {"type": "Point", "coordinates": [99.42772, 18.05274]}, "properties": {"site_id": "TH-0046", "site_name": "Gypsum site 46", "commodity": "Gypsum", "status": "prospect", "grade_pct": 0.21, "discovered": 2022}}, {"type": "Feature", "geometry": {"type": "Point", "coordinates": [103.29053, 17.15576]}, "properties": {"site_id": "TH-0047", "site_name": "Tin site 47", "commodity": "Tin", "status": "abandoned", "grade_pct": 0.45, "discovered": 1998}}, {"type": "Feature", "geometry": {"type": "Point", "coordinates": [100.65257, 16.23921]}, "properties": {"site_id": "TH-0048", "site_name": "Tin site 48", "commodity": "Tin", "status": "prospect", "grade_pct": 3.33, "discovered": 1965}}, {"type": "Feature", "geometry": {"type": "Point", "coordinates": [100.84448, 12.95694]}, "properties": {"site_id": "TH-0049", "site_name": "Limestone site 49", "commodity": "Limestone", "status": "abandoned", "grade_pct": 2.96, "discovered": 1969}}, {"type": "Feature", "geometry": {"type": "Point", "coordinates": [100.97099, 16.51341]}, "properties": {"site_id": "TH-0050", "site_name": "Tungsten site 50", "commodity": "Tungsten", "status": "abandoned", "grade_pct": 7.24, "discovered": 2011}}, {"type": "Feature", "geometry": {"type": "Point", "coordinates": [99.41306, 19.44548]}, "properties": {"site_id": "TH-0051", "site_name": "Gold site 51", "commodity": "Gold", "status": "occurrence", "grade_pct": 0.52, "discovered": 1998}}, {"type": "Feature", "geometry": {"type": "Point", "coordinates": [99.6932, 14.50386]}, "properties": {"site_id": "TH-0052", "site_name": "Fluorite site 52", "commodity": "Fluorite", "status": "active mine", "grade_pct": 1.03, "discovered": 1980}}, {"type": "Feature", "geometry": {"type": "Point", "coordinates": [103.61695, 15.8829]}, "properties": {"site_id": "TH-0053", "site_name": "Gypsum site 53", "commodity": "Gypsum", "status": "occurrence", "grade_pct": 0.93, "discovered": 1987}}, {"type": "Feature", "geometry": {"type": "Point", "coordinates": [99.21709, 15.90009]}, "properties": {"site_id": "TH-0054", "site_name": "Gold site 54", "commodity": "Gold", "status": "abandoned", "grade_pct": 0.92, "discovered": 2004}}, {"type": "Feature", "geometry": {"type": "Point", "coordinates": [99.91431, 9.16586]}, "properties": {"site_id": "TH-0055", "site_name": "Zinc site 55", "commodity": "Zinc", "status": "abandoned", "grade_pct": 0.32, "discovered": 1973}}, {"type": "Feature", "geometry": {"type": "Point", "coordinates": [98.97064, 16.58363]}, "properties": {"site_id": "TH-0056", "site_name": "Gold site 56", "commodity": "Gold", "status": "abandoned", "grade_pct": 0.65, "discovered": 1988}}, {"type": "Feature", "geometry": {"type": "Point", "coordinates": [99.64935, 20.02471]}, "properties": {"site_id": "TH-0057", "site_name": "Limestone site 57", "commodity": "Limestone", "status": "prospect", "grade_pct": 2.15, "discovered": 1963}}, {"type": "Feature", "geometry": {"type": "Point", "coordinates": [103.66844, 14.65224]}, "properties": {"site_id": "TH-0058", "site_name": "Potash site 58", "commodity": "Potash", "status": "prospect", "grade_pct": 1.84, "discovered": 2006}}, {"type": "Feature", "geometry": {"type": "Point", "coordinates": [99.8383, 14.39247]}, "properties": {"site_id": "TH-0059", "site_name": "Limestone site 59", "commodity": "Limestone", "status": "active mine", "grade_pct": 1.78, "discovered": 1976}}, {"type": "Feature", "geometry": {"type": "Point", "coordinates": [100.74984, 15.86482]}, "properties": {"site_id": "TH-0060", "site_name": "Limestone site 60", "commodity": "Limestone", "status": "active mine", "grade_pct": 0.28, "discovered": 2008}}, {"type": "Feature", "geometry": {"type": "Point", "coordinates": [99.56935, 17.35222]}, "properties": {"site_id": "TH-0061", "site_name": "Limestone site 61", "commodity": "Limestone", "status": "prospect", "grade_pct": 0.8, "discovered": 1969}}, {"type": "Feature", "geometry": {"type": "Point", "coordinates": [99.92242, 16.73478]}, "properties": {"site_id": "TH-0062", "site_name": "Limestone site 62", "commodity": "Limestone", "status": "abandoned", "grade_pct": 0.85, "discovered": 1988}}, {"type": "Feature", "geometry": {"type": "Point", "coordinates": [101.50387, 13.00941]}, "properties": {"site_id": "TH-0063", "site_name": "Tin site 63", "commodity": "Tin", "status": "active mine", "grade_pct": 1.16, "discovered": 1979}}, {"type": "Feature", "geometry": {"type": "Point", "coordinates": [98.88821, 14.34581]}, "properties": {"site_id": "TH-0064", "site_name": "Gypsum site 64", "commodity": "Gypsum", "status": "occurrence", "grade_pct": 3.37, "discovered": 2002}}, {"type": "Feature", "geometry": {"type": "Point", "coordinates": [100.13313, 15.58395]}, "properties": {"site_id": "TH-0065", "site_name": "Potash site 65", "commodity": "Potash", "status": "abandoned", "grade_pct": 0.79, "discovered": 2001}}, {"type": "Feature", "geometry": {"type": "Point", "coordinates": [100.05085, 19.9647]}, "properties": {"site_id": "TH-0066", "site_name": "Limestone site 66", "commodity": "Limestone", "status": "active mine", "grade_pct": 1.6, "discovered": 2002}}, {"type": "Feature", "geometry": {"type": "Point", "coordinates": [101.02474, 6.55353]}, "properties": {"site_id": "TH-0067", "site_name": "Gold site 67", "commodity": "Gold", "status": "prospect", "grade_pct": 2.84, "discovered": 2012}}, {"type": "Feature", "geometry": {"type": "Point", "coordinates": [98.39569, 20.00794]}, "properties": {"site_id": "TH-0068", "site_name": "Gypsum site 68", "commodity": "Gypsum", "status": "prospect", "grade_pct": 1.52, "discovered": 1951}}, {"type": "Feature", "geometry": {"type": "Point", "coordinates": [99.64208, 17.98697]}, "properties": {"site_id": "TH-0069", "site_name": "Tungsten site 69", "commodity": "Tungsten", "status": "prospect", "grade_pct": 0.93, "discovered": 1974}}, {"type": "Feature", "geometry": {"type": "Point", "coordinates": [99.66523, 17.33409]}, "properties": {"site_id": "TH-0070", "site_name": "Limestone site 70", "commodity": "Limestone", "status": "abandoned", "grade_pct": 1.85, "discovered": 1988}}, {"type": "Feature", "geometry": {"type": "Point", "coordinates": [101.06169, 12.87138]}, "properties": {"site_id": "TH-0071", "site_name": "Gold site 71", "commodity": "Gold", "status": "occurrence", "grade_pct": 0.91, "discovered": 1974}}, {"type": "Feature", "geometry": {"type": "Point", "coordinates": [100.54036, 18.29779]}, "properties": {"site_id": "TH-0072", "site_name": "Limestone site 72", "commodity": "Limestone", "status": "abandoned", "grade_pct": 3.12, "discovered": 1998}}, {"type": "Feature", "geometry": {"type": "Point", "coordinates": [100.56585, 15.48986]}, "properties": {"site_id": "TH-0073", "site_name": "Potash site 73", "commodity": "Potash", "status": "prospect", "grade_pct": 0.99, "discovered": 2014}}, {"type": "Feature", "geometry": {"type": "Point", "coordinates": [98.22299, 18.13758]}, "properties": {"site_id": "TH-0074", "site_name": "Tin site 74", "commodity": "Tin", "status": "occurrence", "grade_pct": 0.42, "discovered": 2000}}, {"type": "Feature", "geometry": {"type": "Point", "coordinates": [102.72866, 18.23577]}, "properties": {"site_id": "TH-0075", "site_name": "Potash site 75", "commodity": "Potash", "status": "occurrence", "grade_pct": 2.82, "discovered": 2019}}, {"type": "Feature", "geometry": {"type": "Point", "coordinates": [100.95857, 7.23727]}, "properties": {"site_id": "TH-0076", "site_name": "Gypsum site 76", "commodity": "Gypsum", "status": "active mine", "grade_pct": 0.78, "discovered": 1953}}, {"type": "Feature", "geometry": {"type": "Point", "coordinates": [97.77713, 17.42369]}, "properties": {"site_id": "TH-0077", "site_name": "Gold site 77", "commodity": "Gold", "status": "abandoned", "grade_pct": 0.88, "discovered": 2002}}, {"type": "Feature", "geometry": {"type": "Point", "coordinates": [102.04061, 17.37078]}, "properties": {"site_id": "TH-0078", "site_name": "Tin site 78", "commodity": "Tin", "status": "active mine", "grade_pct": 1.28, "discovered": 1980}}, {"type": "Feature", "geometry": {"type": "Point", "coordinates": [101.48087, 14.31409]}, "properties": {"site_id": "TH-0079", "site_name": "Gold site 79", "commodity": "Gold", "status": "abandoned", "grade_pct": 0.85, "discovered": 2009}}, {"type": "Feature", "geometry": {"type": "Point", "coordinates": [104.78992, 15.69312]}, "properties": {"site_id": "TH-0080", "site_name": "Tin site 80", "commodity": "Tin", "status": "occurrence", "grade_pct": 1.62, "discovered": 1988}}, {"type": "Feature", "geometry": {"type": "Point", "coordinates": [99.03358, 11.41652]}, "properties": {"site_id": "TH-0081", "site_name": "Limestone site 81", "commodity": "Limestone", "status": "prospect", "grade_pct": 0.78, "discovered": 1987}}, {"type": "Feature", "geometry": {"type": "Point", "coordinates": [99.65074, 14.06256]}, "properties": {"site_id": "TH-0082", "site_name": "Gypsum site 82", "commodity": "Gypsum", "status": "active mine", "grade_pct": 1.63, "discovered": 1995}}, {"type": "Feature", "geometry": {"type": "Point", "coordinates": [99.19584, 8.57593]}, "properties": {"site_id": "TH-0083", "site_name": "Gold site 83", "commodity": "Gold", "status": "prospect", "grade_pct": 6.18, "discovered": 1955}}, {"type": "Feature", "geometry": {"type": "Point", "coordinates": [102.15251, 16.49245]}, "properties": {"site_id": "TH-0084", "site_name": "Tin site 84", "commodity": "Tin", "status": "abandoned", "grade_pct": 0.67, "discovered": 1975}}, {"type": "Feature", "geometry": {"type": "Point", "coordinates": [99.50715, 17.84047]}, "properties": {"site_id": "TH-0085", "site_name": "Limestone site 85", "commodity": "Limestone", "status": "abandoned", "grade_pct": 1.67, "discovered": 1964}}, {"type": "Feature", "geometry": {"type": "Point", "coordinates": [101.24032, 6.89937]}, "properties": {"site_id": "TH-0086", "site_name": "Zinc site 86", "commodity": "Zinc", "status": "prospect", "grade_pct": 6.0, "discovered": 2000}}, {"type": "Feature", "geometry": {"type": "Point", "coordinates": [100.39936, 17.34396]}, "properties": {"site_id": "TH-0087", "site_name": "Tin site 87", "commodity": "Tin", "status": "active mine", "grade_pct": 0.83, "discovered": 1983}}, {"type": "Feature", "geometry": {"type": "Point", "coordinates": [102.19339, 17.80729]}, "properties": {"site_id": "TH-0088", "site_name": "Fluorite site 88", "commodity": "Fluorite", "status": "active mine", "grade_pct": 1.57, "discovered": 2021}}, {"type": "Feature", "geometry": {"type": "Point", "coordinates": [100.08965, 14.7072]}, "properties": {"site_id": "TH-0089", "site_name": "Gypsum site 89", "commodity": "Gypsum", "status": "occurrence", "grade_pct": 2.24, "discovered": 2002}}, {"type": "Feature", "geometry": {"type": "Point", "coordinates": [100.44229, 19.66096]}, "properties": {"site_id": "TH-0090", "site_name": "Gypsum site 90", "commodity": "Gypsum", "status": "occurrence", "grade_pct": 1.55, "discovered": 2003}}, {"type": "Feature", "geometry": {"type": "Point", "coordinates": [102.77036, 17.97192]}, "properties": {"site_id": "TH-0091", "site_name": "Gypsum site 91", "commodity": "Gypsum", "status": "abandoned", "grade_pct": 0.36, "discovered": 2006}}, {"type": "Feature", "geometry": {"type": "Point", "coordinates": [100.41215, 18.96476]}, "properties": {"site_id": "TH-0092", "site_name": "Gypsum site 92", "commodity": "Gypsum", "status": "active mine", "grade_pct": 0.84, "discovered": 1965}}, {"type": "Feature", "geometry": {"type": "Point", "coordinates": [99.08269, 17.91534]}, "properties": {"site_id": "TH-0093", "site_name": "Limestone site 93", "commodity": "Limestone", "status": "prospect", "grade_pct": 1.75, "discovered": 1968}}, {"type": "Feature", "geometry": {"type": "Point", "coordinates": [103.86688, 14.50133]}, "properties": {"site_id": "TH-0094", "site_name": "Gold site 94", "commodity": "Gold", "status": "prospect", "grade_pct": 1.58, "discovered": 1953}}, {"type": "Feature", "geometry": {"type": "Point", "coordinates": [99.21671, 14.78056]}, "properties": {"site_id": "TH-0095", "site_name": "Zinc site 95", "commodity": "Zinc", "status": "abandoned", "grade_pct": 0.2, "discovered": 1957}}, {"type": "Feature", "geometry": {"type": "Point", "coordinates": [100.89544, 7.37624]}, "properties": {"site_id": "TH-0096", "site_name": "Zinc site 96", "commodity": "Zinc", "status": "occurrence", "grade_pct": 1.17, "discovered": 1985}}, {"type": "Feature", "geometry": {"type": "Point", "coordinates": [102.5194, 14.34632]}, "properties": {"site_id": "TH-0097", "site_name": "Zinc site 97", "commodity": "Zinc", "status": "occurrence", "grade_pct": 0.85, "discovered": 1962}}, {"type": "Feature", "geometry": {"type": "Point", "coordinates": [100.92657, 18.76613]}, "properties": {"site_id": "TH-0098", "site_name": "Limestone site 98", "commodity": "Limestone", "status": "occurrence", "grade_pct": 0.6, "discovered": 1990}}, {"type": "Feature", "geometry": {"type": "Point", "coordinates": [100.89946, 15.51057]}, "properties": {"site_id": "TH-0099", "site_name": "Gold site 99", "commodity": "Gold", "status": "prospect", "grade_pct": 1.63, "discovered": 1961}}, {"type": "Feature", "geometry": {"type": "Point", "coordinates": [98.19183, 16.58642]}, "properties": {"site_id": "TH-0100", "site_name": "Potash site 100", "commodity": "Potash", "status": "active mine", "grade_pct": 1.31, "discovered": 1992}}, {"type": "Feature", "geometry": {"type": "Point", "coordinates": [100.86808, 19.17132]}, "properties": {"site_id": "TH-0101", "site_name": "Tin site 101", "commodity": "Tin", "status": "abandoned", "grade_pct": 1.24, "discovered": 2023}}, {"type": "Feature", "geometry": {"type": "Point", "coordinates": [100.27093, 13.92148]}, "properties": {"site_id": "TH-0102", "site_name": "Tin site 102", "commodity": "Tin", "status": "abandoned", "grade_pct": 1.69, "discovered": 2021}}, {"type": "Feature", "geometry": {"type": "Point", "coordinates": [102.4313, 15.18341]}, "properties": {"site_id": "TH-0103", "site_name": "Tin site 103", "commodity": "Tin", "status": "abandoned", "grade_pct": 0.41, "discovered": 1989}}, {"type": "Feature", "geometry": {"type": "Point", "coordinates": [98.69076, 10.34991]}, "properties": {"site_id": "TH-0104", "site_name": "Gold site 104", "commodity": "Gold", "status": "active mine", "grade_pct": 1.86, "discovered": 1956}}, {"type": "Feature", "geometry": {"type": "Point", "coordinates": [100.64116, 14.55014]}, "properties": {"site_id": "TH-0105", "site_name": "Tin site 105", "commodity": "Tin", "status": "abandoned", "grade_pct": 1.67, "discovered": 1965}}, {"type": "Feature", "geometry": {"type": "Point", "coordinates": [98.8407, 11.35103]}, "properties": {"site_id": "TH-0106", "site_name": "Zinc site 106", "commodity": "Zinc", "status": "abandoned", "grade_pct": 1.28, "discovered": 2003}}, {"type": "Feature", "geometry": {"type": "Point", "coordinates": [98.04491, 18.50966]}, "properties": {"site_id": "TH-0107", "site_name": "Zinc site 107", "commodity": "Zinc", "status": "prospect", "grade_pct": 0.76, "discovered": 2015}}, {"type": "Feature", "geometry": {"type": "Point", "coordinates": [98.99001, 17.13293]}, "properties": {"site_id": "TH-0108", "site_name": "Gold site 108", "commodity": "Gold", "status": "prospect", "grade_pct": 0.65, "discovered": 1975}}, {"type": "Feature", "geometry": {"type": "Point", "coordinates": [101.20442, 14.03054]}, "properties": {"site_id": "TH-0109", "site_name": "Limestone site 109", "commodity": "Limestone", "status": "abandoned", "grade_pct": 3.82, "discovered": 1969}}, {"type": "Feature", "geometry": {"type": "Point", "coordinates": [101.00606, 12.64625]}, "properties": {"site_id": "TH-0110", "site_name": "Gypsum site 110", "commodity": "Gypsum", "status": "abandoned", "grade_pct": 1.21, "discovered": 1959}}, {"type": "Feature", "geometry": {"type": "Point", "coordinates": [97.8665, 17.94277]}, "properties": {"site_id": "TH-0111", "site_name": "Tin site 111", "commodity": "Tin", "status": "active mine", "grade_pct": 1.38, "discovered": 2009}}, {"type": "Feature", "geometry": {"type": "Point", "coordinates": [98.94356, 14.63309]}, "properties": {"site_id": "TH-0112", "site_name": "Limestone site 112", "commodity": "Limestone", "status": "active mine", "grade_pct": 0.7, "discovered": 1993}}, {"type": "Feature", "geometry": {"type": "Point", "coordinates": [101.69736, 14.70316]}, "properties": {"site_id": "TH-0113", "site_name": "Gold site 113", "commodity": "Gold", "status": "abandoned", "grade_pct": 0.5, "discovered": 1956}}, {"type": "Feature", "geometry": {"type": "Point", "coordinates": [103.87166, 15.25066]}, "properties": {"site_id": "TH-0114", "site_name": "Tin site 114", "commodity": "Tin", "status": "active mine", "grade_pct": 1.14, "discovered": 1982}}, {"type": "Feature", "geometry": {"type": "Point", "coordinates": [103.33462, 15.38584]}, "properties": {"site_id": "TH-0115", "site_name": "Fluorite site 115", "commodity": "Fluorite", "status": "prospect", "grade_pct": 0.58, "discovered": 1968}}, {"type": "Feature", "geometry": {"type": "Point", "coordinates": [102.77965, 15.46717]}, "properties": {"site_id": "TH-0116", "site_name": "Tin site 116", "commodity": "Tin", "status": "active mine", "grade_pct": 0.66, "discovered": 1992}}, {"type": "Feature", "geometry": {"type": "Point", "coordinates": [104.06812, 15.5837]}, "properties": {"site_id": "TH-0117", "site_name": "Potash site 117", "commodity": "Potash", "status": "active mine", "grade_pct": 1.42, "discovered": 1996}}, {"type": "Feature", "geometry": {"type": "Point", "coordinates": [99.8255, 17.30655]}, "properties": {"site_id": "TH-0118", "site_name": "Limestone site 118", "commodity": "Limestone", "status": "active mine", "grade_pct": 6.04, "discovered": 1966}}, {"type": "Feature", "geometry": {"type": "Point", "coordinates": [98.88294, 15.91555]}, "properties": {"site_id": "TH-0119", "site_name": "Gypsum site 119", "commodity": "Gypsum", "status": "prospect", "grade_pct": 1.37, "discovered": 1996}}, {"type": "Feature", "geometry": {"type": "Point", "coordinates": [100.53135, 13.50091]}, "properties": {"site_id": "TH-0120", "site_name": "Tungsten site 120", "commodity": "Tungsten", "status": "prospect", "grade_pct": 1.62, "discovered": 1982}}, {"type": "Feature", "geometry": {"type": "Point", "coordinates": [100.44394, 19.44069]}, "properties": {"site_id": "TH-0121", "site_name": "Zinc site 121", "commodity": "Zinc", "status": "active mine", "grade_pct": 0.29, "discovered": 1984}}, {"type": "Feature", "geometry": {"type": "Point", "coordinates": [101.08442, 13.29495]}, "properties": {"site_id": "TH-0122", "site_name": "Potash site 122", "commodity": "Potash", "status": "active mine", "grade_pct": 2.2, "discovered": 2007}}, {"type": "Feature", "geometry": {"type": "Point", "coordinates": [100.01322, 7.24661]}, "properties": {"site_id": "TH-0123", "site_name": "Zinc site 123", "commodity": "Zinc", "status": "abandoned", "grade_pct": 1.59, "discovered": 1986}}, {"type": "Feature", "geometry": {"type": "Point", "coordinates": [104.21511, 16.87908]}, "properties": {"site_id": "TH-0124", "site_name": "Limestone site 124", "commodity": "Limestone", "status": "active mine", "grade_pct": 0.63, "discovered": 2017}}, {"type": "Feature", "geometry": {"type": "Point", "coordinates": [100.87069, 17.13212]}, "properties": {"site_id": "TH-0125", "site_name": "Gold site 125", "commodity": "Gold", "status": "active mine", "grade_pct": 0.34, "discovered": 2008}}, {"type": "Feature", "geometry": {"type": "Point", "coordinates": [97.91502, 18.01564]}, "properties": {"site_id": "TH-0126", "site_name": "Limestone site 126", "commodity": "Limestone", "status": "active mine", "grade_pct": 1.53, "discovered": 1968}}, {"type": "Feature", "geometry": {"type": "Point", "coordinates": [100.29309, 14.13169]}, "properties": {"site_id": "TH-0127", "site_name": "Tin site 127", "commodity": "Tin", "status": "active mine", "grade_pct": 1.05, "discovered": 2017}}, {"type": "Feature", "geometry": {"type": "Point", "coordinates": [101.86147, 17.28162]}, "properties": {"site_id": "TH-0128", "site_name": "Limestone site 128", "commodity": "Limestone", "status": "active mine", "grade_pct": 0.75, "discovered": 1999}}, {"type": "Feature", "geometry": {"type": "Point", "coordinates": [97.53319, 17.31239]}, "properties": {"site_id": "TH-0129", "site_name": "Gold site 129", "commodity": "Gold", "status": "active mine", "grade_pct": 4.08, "discovered": 1992}}, {"type": "Feature", "geometry": {"type": "Point", "coordinates": [100.17609, 15.18482]}, "properties": {"site_id": "TH-0130", "site_name": "Potash site 130", "commodity": "Potash", "status": "occurrence", "grade_pct": 3.54, "discovered": 1973}}, {"type": "Feature", "geometry": {"type": "Point", "coordinates": [99.47717, 16.79805]}, "properties": {"site_id": "TH-0131", "site_name": "Tin site 131", "commodity": "Tin", "status": "abandoned", "grade_pct": 1.34, "discovered": 1997}}, {"type": "Feature", "geometry": {"type": "Point", "coordinates": [98.87974, 10.08899]}, "properties": {"site_id": "TH-0132", "site_name": "Tin site 132", "commodity": "Tin", "status": "abandoned", "grade_pct": 1.38, "discovered": 2004}}, {"type": "Feature", "geometry": {"type": "Point", "coordinates": [98.76649, 12.28106]}, "properties": {"site_id": "TH-0133", "site_name": "Limestone site 133", "commodity": "Limestone", "status": "abandoned", "grade_pct": 1.32, "discovered": 1957}}, {"type": "Feature", "geometry": {"type": "Point", "coordinates": [100.37915, 17.496]}, "properties": {"site_id": "TH-0134", "site_name": "Gypsum site 134", "commodity": "Gypsum", "status": "active mine", "grade_pct": 0.29, "discovered": 2006}}, {"type": "Feature", "geometry": {"type": "Point", "coordinates": [100.53941, 14.08177]}, "properties": {"site_id": "TH-0135", "site_name": "Gypsum site 135", "commodity": "Gypsum", "status": "occurrence", "grade_pct": 2.67, "discovered": 1959}}, {"type": "Feature", "geometry": {"type": "Point", "coordinates": [102.10616, 13.53011]}, "properties": {"site_id": "TH-0136", "site_name": "Gold site 136", "commodity": "Gold", "status": "abandoned", "grade_pct": 0.68, "discovered": 1973}}, {"type": "Feature", "geometry": {"type": "Point", "coordinates": [99.53438, 12.31559]}, "properties": {"site_id": "TH-0137", "site_name": "Tungsten site 137", "commodity": "Tungsten", "status": "abandoned", "grade_pct": 0.62, "discovered": 1959}}, {"type": "Feature", "geometry": {"type": "Point", "coordinates": [101.04991, 7.08174]}, "properties": {"site_id": "TH-0138", "site_name": "Gypsum site 138", "commodity": "Gypsum", "status": "abandoned", "grade_pct": 2.21, "discovered": 2020}}, {"type": "Feature", "geometry": {"type": "Point", "coordinates": [104.38117, 16.19241]}, "properties": {"site_id": "TH-0139", "site_name": "Fluorite site 139", "commodity": "Fluorite", "status": "prospect", "grade_pct": 2.27, "discovered": 1965}}, {"type": "Feature", "geometry": {"type": "Point", "coordinates": [99.34124, 13.01272]}, "properties": {"site_id": "TH-0140", "site_name": "Gold site 140", "commodity": "Gold", "status": "abandoned", "grade_pct": 0.07, "discovered": 1966}}, {"type": "Feature", "geometry": {"type": "Point", "coordinates": [103.70715, 17.82076]}, "properties": {"site_id": "TH-0141", "site_name": "Tin site 141", "commodity": "Tin", "status": "abandoned", "grade_pct": 1.43, "discovered": 2016}}, {"type": "Feature", "geometry": {"type": "Point", "coordinates": [100.22502, 18.61822]}, "properties": {"site_id": "TH-0142", "site_name": "Potash site 142", "commodity": "Potash", "status": "prospect", "grade_pct": 1.52, "discovered": 2014}}, {"type": "Feature", "geometry": {"type": "Point", "coordinates": [98.75019, 10.51085]}, "properties": {"site_id": "TH-0143", "site_name": "Zinc site 143", "commodity": "Zinc", "status": "abandoned", "grade_pct": 3.58, "discovered": 1986}}, {"type": "Feature", "geometry": {"type": "Point", "coordinates": [102.60747, 13.84228]}, "properties": {"site_id": "TH-0144", "site_name": "Tin site 144", "commodity": "Tin", "status": "abandoned", "grade_pct": 1.19, "discovered": 1971}}, {"type": "Feature", "geometry": {"type": "Point", "coordinates": [102.25283, 14.27744]}, "properties": {"site_id": "TH-0145", "site_name": "Tin site 145", "commodity": "Tin", "status": "abandoned", "grade_pct": 2.94, "discovered": 1953}}, {"type": "Feature", "geometry": {"type": "Point", "coordinates": [98.06603, 19.64878]}, "properties": {"site_id": "TH-0146", "site_name": "Zinc site 146", "commodity": "Zinc", "status": "abandoned", "grade_pct": 2.44, "discovered": 2003}}, {"type": "Feature", "geometry": {"type": "Point", "coordinates": [99.408, 17.5873]}, "properties": {"site_id": "TH-0147", "site_name": "Limestone site 147", "commodity": "Limestone", "status": "occurrence", "grade_pct": 0.85, "discovered": 1976}}, {"type": "Feature", "geometry": {"type": "Point", "coordinates": [100.18958, 7.89756]}, "properties": {"site_id": "TH-0148", "site_name": "Potash site 148", "commodity": "Potash", "status": "abandoned", "grade_pct": 0.67, "discovered": 1990}}, {"type": "Feature", "geometry": {"type": "Point", "coordinates": [99.38225, 7.58882]}, "properties": {"site_id": "TH-0149", "site_name": "Limestone site 149", "commodity": "Limestone", "status": "prospect", "grade_pct": 0.46, "discovered": 1999}}, {"type": "Feature", "geometry": {"type": "Point", "coordinates": [99.37397, 14.31682]}, "properties": {"site_id": "TH-0150", "site_name": "Tin site 150", "commodity": "Tin", "status": "abandoned", "grade_pct": 0.94, "discovered": 2010}}, {"type": "Feature", "geometry": {"type": "Point", "coordinates": [100.70668, 6.46054]}, "properties": {"site_id": "TH-0151", "site_name": "Tin site 151", "commodity": "Tin", "status": "prospect", "grade_pct": 0.77, "discovered": 1999}}, {"type": "Feature", "geometry": {"type": "Point", "coordinates": [101.5349, 16.9603]}, "properties": {"site_id": "TH-0152", "site_name": "Gold site 152", "commodity": "Gold", "status": "active mine", "grade_pct": 1.13, "discovered": 1968}}, {"type": "Feature", "geometry": {"type": "Point", "coordinates": [99.03227, 13.23319]}, "properties": {"site_id": "TH-0153", "site_name": "Limestone site 153", "commodity": "Limestone", "status": "active mine", "grade_pct": 2.38, "discovered": 1969}}, {"type": "Feature", "geometry": {"type": "Point", "coordinates": [100.08932, 14.75079]}, "properties": {"site_id": "TH-0154", "site_name": "Tin site 154", "commodity": "Tin", "status": "abandoned", "grade_pct": 1.3, "discovered": 2015}}, {"type": "Feature", "geometry": {"type": "Point", "coordinates": [101.76519, 16.1476]}, "properties": {"site_id": "TH-0155", "site_name": "Gold site 155", "commodity": "Gold", "status": "active mine", "grade_pct": 0.57, "discovered": 2003}}, {"type": "Feature", "geometry": {"type": "Point", "coordinates": [102.18636, 17.43262]}, "properties": {"site_id": "TH-0156", "site_name": "Zinc site 156", "commodity": "Zinc", "status": "active mine", "grade_pct": 1.2, "discovered": 2024}}, {"type": "Feature", "geometry": {"type": "Point", "coordinates": [102.1366, 16.33244]}, "properties": {"site_id": "TH-0157", "site_name": "Limestone site 157", "commodity": "Limestone", "status": "prospect", "grade_pct": 1.13, "discovered": 1998}}, {"type": "Feature", "geometry": {"type": "Point", "coordinates": [98.61176, 15.73861]}, "properties": {"site_id": "TH-0158", "site_name": "Tin site 158", "commodity": "Tin", "status": "active mine", "grade_pct": 0.47, "discovered": 2003}}, {"type": "Feature", "geometry": {"type": "Point", "coordinates": [98.64174, 15.8813]}, "properties": {"site_id": "TH-0159", "site_name": "Limestone site 159", "commodity": "Limestone", "status": "occurrence", "grade_pct": 0.55, "discovered": 2011}}, {"type": "Feature", "geometry": {"type": "Point", "coordinates": [98.8201, 19.11701]}, "properties": {"site_id": "TH-0160", "site_name": "Gold site 160", "commodity": "Gold", "status": "abandoned", "grade_pct": 6.2, "discovered": 1983}}, {"type": "Feature", "geometry": {"type": "Point", "coordinates": [99.42146, 13.94807]}, "properties": {"site_id": "TH-0161", "site_name": "Gold site 161", "commodity": "Gold", "status": "abandoned", "grade_pct": 3.53, "discovered": 2012}}, {"type": "Feature", "geometry": {"type": "Point", "coordinates": [99.64235, 7.57936]}, "properties": {"site_id": "TH-0162", "site_name": "Gypsum site 162", "commodity": "Gypsum", "status": "occurrence", "grade_pct": 2.45, "discovered": 1994}}, {"type": "Feature", "geometry": {"type": "Point", "coordinates": [102.44855, 14.36773]}, "properties": {"site_id": "TH-0163", "site_name": "Gold site 163", "commodity": "Gold", "status": "prospect", "grade_pct": 1.22, "discovered": 2002}}, {"type": "Feature", "geometry": {"type": "Point", "coordinates": [102.73442, 16.8363]}, "properties": {"site_id": "TH-0164", "site_name": "Gold site 164", "commodity": "Gold", "status": "abandoned", "grade_pct": 8.8, "discovered": 1961}}, {"type": "Feature", "geometry": {"type": "Point", "coordinates": [103.45723, 18.21486]}, "properties": {"site_id": "TH-0165", "site_name": "Tin site 165", "commodity": "Tin", "status": "prospect", "grade_pct": 0.5, "discovered": 1954}}, {"type": "Feature", "geometry": {"type": "Point", "coordinates": [98.73245, 12.50015]}, "properties": {"site_id": "TH-0166", "site_name": "Gold site 166", "commodity": "Gold", "status": "prospect", "grade_pct": 0.37, "discovered": 1987}}, {"type": "Feature", "geometry": {"type": "Point", "coordinates": [102.05581, 16.85633]}, "properties": {"site_id": "TH-0167", "site_name": "Tin site 167", "commodity": "Tin", "status": "occurrence", "grade_pct": 2.52, "discovered": 1961}}, {"type": "Feature", "geometry": {"type": "Point", "coordinates": [100.68683, 7.19262]}, "properties": {"site_id": "TH-0168", "site_name": "Tungsten site 168", "commodity": "Tungsten", "status": "occurrence", "grade_pct": 0.72, "discovered": 1983}}, {"type": "Feature", "geometry": {"type": "Point", "coordinates": [102.17618, 14.16401]}, "properties": {"site_id": "TH-0169", "site_name": "Gold site 169", "commodity": "Gold", "status": "abandoned", "grade_pct": 1.33, "discovered": 1965}}, {"type": "Feature", "geometry": {"type": "Point", "coordinates": [104.67997, 17.03968]}, "properties": {"site_id": "TH-0170", "site_name": "Gypsum site 170", "commodity": "Gypsum", "status": "abandoned", "grade_pct": 0.79, "discovered": 1967}}, {"type": "Feature", "geometry": {"type": "Point", "coordinates": [103.61027, 17.50913]}, "properties": {"site_id": "TH-0171", "site_name": "Potash site 171", "commodity": "Potash", "status": "prospect", "grade_pct": 1.84, "discovered": 1960}}, {"type": "Feature", "geometry": {"type": "Point", "coordinates": [101.70915, 13.51133]}, "properties": {"site_id": "TH-0172", "site_name": "Gold site 172", "commodity": "Gold", "status": "active mine", "grade_pct": 0.26, "discovered": 2014}}, {"type": "Feature", "geometry": {"type": "Point", "coordinates": [99.05769, 13.63524]}, "properties": {"site_id": "TH-0173", "site_name": "Tin site 173", "commodity": "Tin", "status": "occurrence", "grade_pct": 0.52, "discovered": 2024}}, {"type": "Feature", "geometry": {"type": "Point", "coordinates": [101.05296, 6.61228]}, "properties": {"site_id": "TH-0174", "site_name": "Tin site 174", "commodity": "Tin", "status": "occurrence", "grade_pct": 0.94, "discovered": 2009}}, {"type": "Feature", "geometry": {"type": "Point", "coordinates": [97.8941, 18.85559]}, "properties": {"site_id": "TH-0175", "site_name": "Tungsten site 175", "commodity": "Tungsten", "status": "occurrence", "grade_pct": 0.34, "discovered": 1967}}, {"type": "Feature", "geometry": {"type": "Point", "coordinates": [100.48029, 15.76786]}, "properties": {"site_id": "TH-0176", "site_name": "Gypsum site 176", "commodity": "Gypsum", "status": "prospect", "grade_pct": 1.38, "discovered": 1972}}, {"type": "Feature", "geometry": {"type": "Point", "coordinates": [104.24554, 16.84022]}, "properties": {"site_id": "TH-0177", "site_name": "Tungsten site 177", "commodity": "Tungsten", "status": "occurrence", "grade_pct": 1.69, "discovered": 2018}}, {"type": "Feature", "geometry": {"type": "Point", "coordinates": [98.94554, 18.57804]}, "properties": {"site_id": "TH-0178", "site_name": "Zinc site 178", "commodity": "Zinc", "status": "active mine", "grade_pct": 2.08, "discovered": 1952}}, {"type": "Feature", "geometry": {"type": "Point", "coordinates": [100.9995, 13.68049]}, "properties": {"site_id": "TH-0179", "site_name": "Zinc site 179", "commodity": "Zinc", "status": "active mine", "grade_pct": 1.28, "discovered": 1991}}, {"type": "Feature", "geometry": {"type": "Point", "coordinates": [99.34261, 18.59337]}, "properties": {"site_id": "TH-0180", "site_name": "Tungsten site 180", "commodity": "Tungsten", "status": "prospect", "grade_pct": 0.85, "discovered": 2021}}, {"type": "Feature", "geometry": {"type": "Point", "coordinates": [104.87494, 14.9395]}, "properties": {"site_id": "TH-0181", "site_name": "Limestone site 181", "commodity": "Limestone", "status": "occurrence", "grade_pct": 0.39, "discovered": 1998}}, {"type": "Feature", "geometry": {"type": "Point", "coordinates": [100.48697, 16.81448]}, "properties": {"site_id": "TH-0182", "site_name": "Limestone site 182", "commodity": "Limestone", "status": "prospect", "grade_pct": 0.39, "discovered": 2009}}, {"type": "Feature", "geometry": {"type": "Point", "coordinates": [98.49956, 9.34573]}, "properties": {"site_id": "TH-0183", "site_name": "Tin site 183", "commodity": "Tin", "status": "active mine", "grade_pct": 0.56, "discovered": 1955}}, {"type": "Feature", "geometry": {"type": "Point", "coordinates": [103.64591, 16.37486]}, "properties": {"site_id": "TH-0184", "site_name": "Limestone site 184", "commodity": "Limestone", "status": "occurrence", "grade_pct": 0.61, "discovered": 1965}}, {"type": "Feature", "geometry": {"type": "Point", "coordinates": [103.52441, 16.81323]}, "properties": {"site_id": "TH-0185", "site_name": "Fluorite site 185", "commodity": "Fluorite", "status": "prospect", "grade_pct": 0.83, "discovered": 1991}}, {"type": "Feature", "geometry": {"type": "Point", "coordinates": [99.54481, 13.28712]}, "properties": {"site_id": "TH-0186", "site_name": "Limestone site 186", "commodity": "Limestone", "status": "active mine", "grade_pct": 4.47, "discovered": 1990}}, {"type": "Feature", "geometry": {"type": "Point", "coordinates": [100.79423, 14.01286]}, "properties": {"site_id": "TH-0187", "site_name": "Gold site 187", "commodity": "Gold", "status": "prospect", "grade_pct": 1.51, "discovered": 1987}}, {"type": "Feature", "geometry": {"type": "Point", "coordinates": [98.64977, 10.61603]}, "properties": {"site_id": "TH-0188", "site_name": "Gold site 188", "commodity": "Gold", "status": "prospect", "grade_pct": 1.0, "discovered": 1993}}, {"type": "Feature", "geometry": {"type": "Point", "coordinates": [99.51008, 17.79524]}, "properties": {"site_id": "TH-0189", "site_name": "Tungsten site 189", "commodity": "Tungsten", "status": "occurrence", "grade_pct": 0.82, "discovered": 1995}}, {"type": "Feature", "geometry": {"type": "Point", "coordinates": [98.78798, 16.31658]}, "properties": {"site_id": "TH-0190", "site_name": "Limestone site 190", "commodity": "Limestone", "status": "active mine", "grade_pct": 1.23, "discovered": 1959}}, {"type": "Feature", "geometry": {"type": "Point", "coordinates": [105.15054, 15.55595]}, "properties": {"site_id": "TH-0191", "site_name": "Zinc site 191", "commodity": "Zinc", "status": "occurrence", "grade_pct": 0.26, "discovered": 1958}}, {"type": "Feature", "geometry": {"type": "Point", "coordinates": [102.46625, 15.53462]}, "properties": {"site_id": "TH-0192", "site_name": "Gypsum site 192", "commodity": "Gypsum", "status": "occurrence", "grade_pct": 1.08, "discovered": 1952}}, {"type": "Feature", "geometry": {"type": "Point", "coordinates": [104.06789, 15.64088]}, "properties": {"site_id": "TH-0193", "site_name": "Potash site 193", "commodity": "Potash", "status": "prospect", "grade_pct": 0.55, "discovered": 2017}}, {"type": "Feature", "geometry": {"type": "Point", "coordinates": [99.3943, 15.97965]}, "properties": {"site_id": "TH-0194", "site_name": "Gold site 194", "commodity": "Gold", "status": "active mine", "grade_pct": 4.43, "discovered": 1954}}, {"type": "Feature", "geometry": {"type": "Point", "coordinates": [99.13362, 18.47451]}, "properties": {"site_id": "TH-0195", "site_name": "Fluorite site 195", "commodity": "Fluorite", "status": "occurrence", "grade_pct": 1.42, "discovered": 2019}}, {"type": "Feature", "geometry": {"type": "Point", "coordinates": [103.56849, 16.20559]}, "properties": {"site_id": "TH-0196", "site_name": "Gold site 196", "commodity": "Gold", "status": "active mine", "grade_pct": 0.53, "discovered": 2022}}, {"type": "Feature", "geometry": {"type": "Point", "coordinates": [100.65297, 17.0939]}, "properties": {"site_id": "TH-0197", "site_name": "Tin site 197", "commodity": "Tin", "status": "abandoned", "grade_pct": 2.03, "discovered": 1979}}, {"type": "Feature", "geometry": {"type": "Point", "coordinates": [100.31765, 19.54069]}, "properties": {"site_id": "TH-0198", "site_name": "Limestone site 198", "commodity": "Limestone", "status": "occurrence", "grade_pct": 0.23, "discovered": 1981}}, {"type": "Feature", "geometry": {"type": "Point", "coordinates": [98.66461, 16.19049]}, "properties": {"site_id": "TH-0199", "site_name": "Gypsum site 199", "commodity": "Gypsum", "status": "occurrence", "grade_pct": 0.75, "discovered": 1950}}, {"type": "Feature", "geometry": {"type": "Point", "coordinates": [101.96728, 13.28164]}, "properties": {"site_id": "TH-0200", "site_name": "Tin site 200", "commodity": "Tin", "status": "active mine", "grade_pct": 0.8, "discovered": 1991}}]}