{
"type": "FeatureCollection",
"crs": { "type": "name", "properties": { "name": "urn:ogc:def:crs:OGC:1.3:CRS84" } },
"features": [
{ "type": "Feature", "properties": { "unit_id": "THGEO-001", "unit_name": "Quaternary alluvium", "age": "Quaternary", "rock_class": "Sedimentary", "map_symbol": "Qa", "area_km2": 19725.5 }, "geometry": { "type": "Polygon", "coordinates": [ [ [ 98.30683348634787, 18.146445142453743 ], [ 98.858704731493305, 17.60770567980402 ], [ 98.250813933760526, 16.510387614435082 ], [ 97.7, 17.0 ], [ 97.5, 17.9 ], [ 97.35, 18.55 ], [ 97.426955281785084, 18.687420146044797 ], [ 98.30683348634787, 18.146445142453743 ] ] ] } },
{ "type": "Feature", "properties": { "unit_id": "THGEO-002", "unit_name": "Khorat Group sandstone/siltstone", "age": "Jurassic-Cretaceous", "rock_class": "Sedimentary", "map_symbol": "JKk", "area_km2": 11928.9 }, "geometry": { "type": "Polygon", "coordinates": [ [ [ 99.859611765129699, 12.479482353506256 ], [ 99.2, 11.6 ], [ 99.319672044679123, 11.292271885110813 ], [ 98.951294168309573, 11.275858661409364 ], [ 98.85, 11.6 ], [ 98.55, 12.2 ], [ 98.965744071403861, 12.729128818150381 ], [ 99.859611765129699, 12.479482353506256 ] ] ] } },
{ "type": "Feature", "properties": { "unit_id": "THGEO-003", "unit_name": "Ratburi Group limestone", "age": "Permian", "rock_class": "Sedimentary", "map_symbol": "Pr", "area_km2": 7767.4 }, "geometry": { "type": "Polygon", "coordinates": [ [ [ 98.522879815605307, 9.699558377770646 ], [ 98.833091568908316, 9.413823814647641 ], [ 98.733167642935967, 8.057213867313155 ], [ 98.4, 8.2 ], [ 98.3, 9.2 ], [ 98.459612195505656, 9.732040651685555 ], [ 98.522879815605307, 9.699558377770646 ] ] ] } },
{ "type": "Feature", "properties": { "unit_id": "THGEO-004", "unit_name": "Granite", "age": "Triassic", "rock_class": "Igneous (intrusive)", "map_symbol": "Trgr", "area_km2": 16831.7 }, "geometry": { "type": "Polygon", "coordinates": [ [ [ 99.514938056683164, 8.252041832636008 ], [ 100.218402868542412, 8.62964390434737 ], [ 100.35, 8.35 ], [ 100.1, 7.55 ], [ 100.732307582497924, 7.107384692251444 ], [ 100.088939364078982, 6.87433567811739 ], [ 99.6, 7.1 ], [ 99.116268973592383, 7.873969642252177 ], [ 99.514938056683164, 8.252041832636008 ] ] ] } },
{ "type": "Feature", "properties": { "unit_id": "THGEO-005", "unit_name": "Basalt", "age": "Cenozoic", "rock_class": "Igneous (extrusive)", "map_symbol": "Cb", "area_km2": 17740.4 }, "geometry": { "type": "Polygon", "coordinates": [ [ [ 99.281520374510052, 19.358837505539121 ], [ 97.54297141524853, 18.894591812943816 ], [ 98.05, 19.8 ], [ 99.05, 20.45 ], [ 99.495932424036525, 20.428765122664927 ], [ 99.281520374510052, 19.358837505539121 ] ] ] } },
{ "type": "Feature", "properties": { "unit_id": "THGEO-006", "unit_name": "Metasedimentary rocks", "age": "Silurian-Devonian", "rock_class": "Metamorphic", "map_symbol": "SDm", "area_km2": 23027.3 }, "geometry": { "type": "Polygon", "coordinates": [ [ [ 98.858704731493305, 17.60770567980402 ], [ 99.879212030751489, 17.234891875909302 ], [ 100.075850019488087, 16.639286882566036 ], [ 98.308479608241598, 15.5440791185436 ], [ 98.6, 16.2 ], [ 98.250813933760526, 16.510387614435082 ], [ 98.858704731493305, 17.60770567980402 ] ] ] } },
{ "type": "Feature", "properties": { "unit_id": "THGEO-007", "unit_name": "Volcanic rocks", "age": "Permo-Triassic", "rock_class": "Igneous (extrusive)", "map_symbol": "PTrv", "area_km2": 10816.0 }, "geometry": { "type": "Polygon", "coordinates": [ [ [ 98.965744071403861, 12.729128818150381 ], [ 99.1, 12.9 ], [ 99.194421926658947, 13.749797339930481 ], [ 99.644878280223224, 13.744402979911817 ], [ 99.69182277642922, 13.706722194380799 ], [ 99.988582179889335, 13.140150518450609 ], [ 99.95, 12.6 ], [ 99.859611765129699, 12.479482353506256 ], [ 98.965744071403861, 12.729128818150381 ] ] ] } },
{ "type": "Feature", "properties": { "unit_id": "THGEO-008", "unit_name": "Kaeng Krachan Group clastics", "age": "Carboniferous-Permian", "rock_class": "Sedimentary", "map_symbol": "CPk", "area_km2": 12259.8 }, "geometry": { "type": "Polygon", "coordinates": [ [ [ 98.8492384901393, 15.009130925474421 ], [ 99.624649878199563, 14.621302158761473 ], [ 99.657258023029172, 14.592764309458557 ], [ 99.644878280223224, 13.744402979911817 ], [ 99.194421926658947, 13.749797339930481 ], [ 99.2, 13.8 ], [ 98.5, 14.6 ], [ 98.295509967073727, 15.077143410161304 ], [ 98.8492384901393, 15.009130925474421 ] ] ] } },
{ "type": "Feature", "properties": { "unit_id": "THGEO-009", "unit_name": "Quaternary alluvium", "age": "Quaternary", "rock_class": "Sedimentary", "map_symbol": "Qa", "area_km2": 9453.6 }, "geometry": { "type": "Polygon", "coordinates": [ [ [ 99.69182277642922, 13.706722194380799 ], [ 100.899106727081133, 14.457277696400862 ], [ 100.855577202536907, 13.407868566455258 ], [ 100.35, 13.45 ], [ 100.0, 13.3 ], [ 99.988582179889335, 13.140150518450609 ], [ 99.69182277642922, 13.706722194380799 ] ] ] } },
{ "type": "Feature", "properties": { "unit_id": "THGEO-010", "unit_name": "Khorat Group sandstone/siltstone", "age": "Jurassic-Cretaceous", "rock_class": "Sedimentary", "map_symbol": "JKk", "area_km2": 9043.7 }, "geometry": { "type": "Polygon", "coordinates": [ [ [ 99.319672044679123, 11.292271885110813 ], [ 99.55, 10.7 ], [ 99.422901986429068, 10.300549100205657 ], [ 98.522879815605307, 9.699558377770646 ], [ 98.459612195505656, 9.732040651685555 ], [ 98.6, 10.2 ], [ 99.1, 10.8 ], [ 98.951294168309573, 11.275858661409364 ], [ 99.319672044679123, 11.292271885110813 ] ] ] } },
{ "type": "Feature", "properties": { "unit_id": "THGEO-011", "unit_name": "Ratburi Group limestone", "age": "Permian", "rock_class": "Sedimentary", "map_symbol": "Pr", "area_km2": 16311.9 }, "geometry": { "type": "Polygon", "coordinates": [ [ [ 97.426955281785084, 18.687420146044797 ], [ 97.54297141524853, 18.894591812943816 ], [ 99.281520374510052, 19.358837505539121 ], [ 99.760575068882446, 19.033647632969835 ], [ 98.30683348634787, 18.146445142453743 ], [ 97.426955281785084, 18.687420146044797 ] ] ] } },
{ "type": "Feature", "properties": { "unit_id": "THGEO-012", "unit_name": "Granite", "age": "Triassic", "rock_class": "Igneous (intrusive)", "map_symbol": "Trgr", "area_km2": 20192.3 }, "geometry": { "type": "Polygon", "coordinates": [ [ [ 99.760575068882446, 19.033647632969835 ], [ 99.281520374510052, 19.358837505539121 ], [ 99.495932424036525, 20.428765122664927 ], [ 100.1, 20.4 ], [ 100.55, 19.55 ], [ 101.25, 19.6 ], [ 101.176255033062304, 19.010040264498503 ], [ 99.760575068882446, 19.033647632969835 ] ] ] } },
{ "type": "Feature", "properties": { "unit_id": "THGEO-013", "unit_name": "Basalt", "age": "Cenozoic", "rock_class": "Igneous (extrusive)", "map_symbol": "Cb", "area_km2": 4341.7 }, "geometry": { "type": "Polygon", "coordinates": [ [ [ 98.8492384901393, 15.009130925474421 ], [ 99.726350972696508, 15.512103215215749 ], [ 99.624649878199563, 14.621302158761473 ], [ 98.8492384901393, 15.009130925474421 ] ] ] } },
{ "type": "Feature", "properties": { "unit_id": "THGEO-014", "unit_name": "Metasedimentary rocks", "age": "Silurian-Devonian", "rock_class": "Metamorphic", "map_symbol": "SDm", "area_km2": 4277.0 }, "geometry": { "type": "Polygon", "coordinates": [ [ [ 98.967250687562455, 9.416220165021834 ], [ 98.833091568908316, 9.413823814647641 ], [ 98.522879815605307, 9.699558377770646 ], [ 99.422901986429068, 10.300549100205657 ], [ 99.2, 9.6 ], [ 99.270482969066606, 9.562409083164475 ], [ 98.967250687562455, 9.416220165021834 ] ] ] } },
{ "type": "Feature", "properties": { "unit_id": "THGEO-015", "unit_name": "Volcanic rocks", "age": "Permo-Triassic", "rock_class": "Igneous (extrusive)", "map_symbol": "PTrv", "area_km2": 18725.5 }, "geometry": { "type": "Polygon", "coordinates": [ [ [ 98.295509967073727, 15.077143410161304 ], [ 98.2, 15.3 ], [ 98.308479608241598, 15.5440791185436 ], [ 100.075850019488087, 16.639286882566036 ], [ 100.402081320556448, 16.270262983964681 ], [ 99.726350972696508, 15.512103215215749 ], [ 98.8492384901393, 15.009130925474421 ], [ 98.295509967073727, 15.077143410161304 ] ] ] } },
{ "type": "Feature", "properties": { "unit_id": "THGEO-016", "unit_name": "Kaeng Krachan Group clastics", "age": "Carboniferous-Permian", "rock_class": "Sedimentary", "map_symbol": "CPk", "area_km2": 33277.8 }, "geometry": { "type": "Polygon", "coordinates": [ [ [ 98.30683348634787, 18.146445142453743 ], [ 99.760575068882446, 19.033647632969835 ], [ 101.176255033062304, 19.010040264498503 ], [ 101.166414651895437, 18.931317215163471 ], [ 99.879212030751489, 17.234891875909302 ], [ 98.858704731493305, 17.60770567980402 ], [ 98.30683348634787, 18.146445142453743 ] ] ] } },
{ "type": "Feature", "properties": { "unit_id": "THGEO-017", "unit_name": "Quaternary alluvium", "age": "Quaternary", "rock_class": "Sedimentary", "map_symbol": "Qa", "area_km2": 5894.2 }, "geometry": { "type": "Polygon", "coordinates": [ [ [ 99.514938056683164, 8.252041832636008 ], [ 99.415035431067309, 9.087641960558434 ], [ 99.928206060490936, 9.211623434404837 ], [ 99.95, 9.2 ], [ 100.218402868542412, 8.62964390434737 ], [ 99.514938056683164, 8.252041832636008 ] ] ] } },
{ "type": "Feature", "properties": { "unit_id": "THGEO-018", "unit_name": "Khorat Group sandstone/siltstone", "age": "Jurassic-Cretaceous", "rock_class": "Sedimentary", "map_symbol": "JKk", "area_km2": 10649.5 }, "geometry": { "type": "Polygon", "coordinates": [ [ [ 98.967250687562455, 9.416220165021834 ], [ 99.415035431067309, 9.087641960558434 ], [ 99.514938056683164, 8.252041832636008 ], [ 99.116268973592383, 7.873969642252177 ], [ 99.1, 7.9 ], [ 98.733167642935967, 8.057213867313155 ], [ 98.833091568908316, 9.413823814647641 ], [ 98.967250687562455, 9.416220165021834 ] ] ] } },
{ "type": "Feature", "properties": { "unit_id": "THGEO-019", "unit_name": "Ratburi Group limestone", "age": "Permian", "rock_class": "Sedimentary", "map_symbol": "Pr", "area_km2": 40628.8 }, "geometry": { "type": "Polygon", "coordinates": [ [ [ 99.879212030751489, 17.234891875909302 ], [ 101.166414651895437, 18.931317215163471 ], [ 101.1, 18.4 ], [ 101.05, 17.6 ], [ 102.1, 18.2 ], [ 102.823008789592237, 18.311232121475729 ], [ 102.798433328048631, 17.722896424582355 ], [ 100.531916830251461, 16.183700569444508 ], [ 100.402081320556448, 16.270262983964681 ], [ 100.075850019488087, 16.639286882566036 ], [ 99.879212030751489, 17.234891875909302 ] ] ] } },
{ "type": "Feature", "properties": { "unit_id": "THGEO-020", "unit_name": "Granite", "age": "Triassic", "rock_class": "Igneous (intrusive)", "map_symbol": "Trgr", "area_km2": 2590.7 }, "geometry": { "type": "Polygon", "coordinates": [ [ [ 99.270482969066606, 9.562409083164475 ], [ 99.928206060490936, 9.211623434404837 ], [ 99.415035431067309, 9.087641960558434 ], [ 98.967250687562455, 9.416220165021834 ], [ 99.270482969066606, 9.562409083164475 ] ] ] } },
{ "type": "Feature", "properties": { "unit_id": "THGEO-021", "unit_name": "Basalt", "age": "Cenozoic", "rock_class": "Igneous (extrusive)", "map_symbol": "Cb", "area_km2": 12894.6 }, "geometry": { "type": "Polygon", "coordinates": [ [ [ 99.644878280223224, 13.744402979911817 ], [ 99.657258023029172, 14.592764309458557 ], [ 100.967234209871052, 15.164371085043769 ], [ 101.143004429160513, 14.941701457209714 ], [ 100.899106727081133, 14.457277696400862 ], [ 99.69182277642922, 13.706722194380799 ], [ 99.644878280223224, 13.744402979911817 ] ] ] } },
{ "type": "Feature", "properties": { "unit_id": "THGEO-022", "unit_name": "Metasedimentary rocks", "age": "Silurian-Devonian", "rock_class": "Metamorphic", "map_symbol": "SDm", "area_km2": 15114.0 }, "geometry": { "type": "Polygon", "coordinates": [ [ [ 99.624649878199563, 14.621302158761473 ], [ 99.726350972696508, 15.512103215215749 ], [ 100.402081320556448, 16.270262983964681 ], [ 100.531916830251461, 16.183700569444508 ], [ 100.74285046455411, 15.872433188448653 ], [ 100.967234209871052, 15.164371085043769 ], [ 99.657258023029172, 14.592764309458557 ], [ 99.624649878199563, 14.621302158761473 ] ] ] } },
{ "type": "Feature", "properties": { "unit_id": "THGEO-023", "unit_name": "Volcanic rocks", "age": "Permo-Triassic", "rock_class": "Igneous (extrusive)", "map_symbol": "PTrv", "area_km2": 6856.3 }, "geometry": { "type": "Polygon", "coordinates": [ [ [ 103.487686703117092, 16.228158396796903 ], [ 103.962858466600622, 15.371408370871247 ], [ 103.75951960536473, 15.190352362587376 ], [ 102.77888820332997, 16.40253925586735 ], [ 102.904280723675981, 16.661447941458938 ], [ 103.487686703117092, 16.228158396796903 ] ] ] } },
{ "type": "Feature", "properties": { "unit_id": "THGEO-024", "unit_name": "Kaeng Krachan Group clastics", "age": "Carboniferous-Permian", "rock_class": "Sedimentary", "map_symbol": "CPk", "area_km2": 15101.1 }, "geometry": { "type": "Polygon", "coordinates": [ [ [ 102.904280723675981, 16.661447941458938 ], [ 102.90517421661869, 17.33083480733411 ], [ 104.854874776025241, 16.491695550473182 ], [ 105.138802354474635, 16.190022498370698 ], [ 103.487686703117092, 16.228158396796903 ], [ 102.904280723675981, 16.661447941458938 ] ] ] } },
{ "type": "Feature", "properties": { "unit_id": "THGEO-025", "unit_name": "Quaternary alluvium", "age": "Quaternary", "rock_class": "Sedimentary", "map_symbol": "Qa", "area_km2": 36951.9 }, "geometry": { "type": "Polygon", "coordinates": [ [ [ 100.899106727081133, 14.457277696400862 ], [ 101.143004429160513, 14.941701457209714 ], [ 101.64785919637103, 14.771217697356935 ], [ 102.381079988373614, 13.58107998837362 ], [ 102.35, 13.55 ], [ 102.9, 12.6 ], [ 102.1, 12.2 ], [ 101.5, 12.6 ], [ 100.95, 13.4 ], [ 100.855577202536907, 13.407868566455258 ], [ 100.899106727081133, 14.457277696400862 ] ] ] } },
{ "type": "Feature", "properties": { "unit_id": "THGEO-026", "unit_name": "Khorat Group sandstone/siltstone", "age": "Jurassic-Cretaceous", "rock_class": "Sedimentary", "map_symbol": "JKk", "area_km2": 22826.9 }, "geometry": { "type": "Polygon", "coordinates": [ [ [ 100.74285046455411, 15.872433188448653 ], [ 102.725668912032418, 16.303009774885197 ], [ 102.622974896484578, 15.427132964043125 ], [ 101.64785919637103, 14.771217697356935 ], [ 101.143004429160513, 14.941701457209714 ], [ 100.967234209871052, 15.164371085043769 ], [ 100.74285046455411, 15.872433188448653 ] ] ] } },
{ "type": "Feature", "properties": { "unit_id": "THGEO-027", "unit_name": "Ratburi Group limestone", "age": "Permian", "rock_class": "Sedimentary", "map_symbol": "Pr", "area_km2": 19435.4 }, "geometry": { "type": "Polygon", "coordinates": [ [ [ 100.732307582497924, 7.107384692251444 ], [ 101.1, 6.85 ], [ 102.05, 6.25 ], [ 101.8, 5.75 ], [ 101.1, 5.65 ], [ 100.3, 6.3 ], [ 100.25, 6.8 ], [ 100.088939364078982, 6.87433567811739 ], [ 100.732307582497924, 7.107384692251444 ] ] ] } },
{ "type": "Feature", "properties": { "unit_id": "THGEO-028", "unit_name": "Granite", "age": "Triassic", "rock_class": "Igneous (intrusive)", "map_symbol": "Trgr", "area_km2": 24412.0 }, "geometry": { "type": "Polygon", "coordinates": [ [ [ 102.77888820332997, 16.40253925586735 ], [ 102.725668912032418, 16.303009774885197 ], [ 100.74285046455411, 15.872433188448653 ], [ 100.531916830251461, 16.183700569444508 ], [ 102.798433328048631, 17.722896424582355 ], [ 102.90517421661869, 17.33083480733411 ], [ 102.904280723675981, 16.661447941458938 ], [ 102.77888820332997, 16.40253925586735 ] ] ] } },
{ "type": "Feature", "properties": { "unit_id": "THGEO-029", "unit_name": "Basalt", "age": "Cenozoic", "rock_class": "Igneous (extrusive)", "map_symbol": "Cb", "area_km2": 10274.1 }, "geometry": { "type": "Polygon", "coordinates": [ [ [ 105.562265734223956, 15.577363636227851 ], [ 105.2, 14.4 ], [ 103.732455093421891, 14.330116909210567 ], [ 105.562265734223956, 15.577363636227851 ] ] ] } },
{ "type": "Feature", "properties": { "unit_id": "THGEO-030", "unit_name": "Metasedimentary rocks", "age": "Silurian-Devonian", "rock_class": "Metamorphic", "map_symbol": "SDm", "area_km2": 21781.4 }, "geometry": { "type": "Polygon", "coordinates": [ [ [ 101.64785919637103, 14.771217697356935 ], [ 102.622974896484578, 15.427132964043125 ], [ 103.43303519699451, 14.857428485226041 ], [ 103.483106594999072, 14.318243171190433 ], [ 103.1, 14.3 ], [ 102.381079988373614, 13.58107998837362 ], [ 101.64785919637103, 14.771217697356935 ] ] ] } },
{ "type": "Feature", "properties": { "unit_id": "THGEO-031", "unit_name": "Volcanic rocks", "age": "Permo-Triassic", "rock_class": "Igneous (extrusive)", "map_symbol": "PTrv", "area_km2": 9770.2 }, "geometry": { "type": "Polygon", "coordinates": [ [ [ 102.77888820332997, 16.40253925586735 ], [ 103.75951960536473, 15.190352362587376 ], [ 103.43303519699451, 14.857428485226041 ], [ 102.622974896484578, 15.427132964043125 ], [ 102.725668912032418, 16.303009774885197 ], [ 102.77888820332997, 16.40253925586735 ] ] ] } },
{ "type": "Feature", "properties": { "unit_id": "THGEO-032", "unit_name": "Kaeng Krachan Group clastics", "age": "Carboniferous-Permian", "rock_class": "Sedimentary", "map_symbol": "CPk", "area_km2": 13674.3 }, "geometry": { "type": "Polygon", "coordinates": [ [ [ 103.962858466600622, 15.371408370871247 ], [ 105.581115279940988, 15.638624659808249 ], [ 105.562265734223956, 15.577363636227851 ], [ 103.732455093421891, 14.330116909210567 ], [ 103.483106594999072, 14.318243171190433 ], [ 103.43303519699451, 14.857428485226041 ], [ 103.75951960536473, 15.190352362587376 ], [ 103.962858466600622, 15.371408370871247 ] ] ] } },
{ "type": "Feature", "properties": { "unit_id": "THGEO-033", "unit_name": "Quaternary alluvium", "age": "Quaternary", "rock_class": "Sedimentary", "map_symbol": "Qa", "area_km2": 26995.8 }, "geometry": { "type": "Polygon", "coordinates": [ [ [ 102.90517421661869, 17.33083480733411 ], [ 102.798433328048631, 17.722896424582355 ], [ 102.823008789592237, 18.311232121475729 ], [ 103.4, 18.4 ], [ 104.75, 17.65 ], [ 104.8, 16.55 ], [ 104.854874776025241, 16.491695550473182 ], [ 102.90517421661869, 17.33083480733411 ] ] ] } },
{ "type": "Feature", "properties": { "unit_id": "THGEO-034", "unit_name": "Khorat Group sandstone/siltstone", "age": "Jurassic-Cretaceous", "rock_class": "Sedimentary", "map_symbol": "JKk", "area_km2": 14599.9 }, "geometry": { "type": "Polygon", "coordinates": [ [ [ 103.487686703117092, 16.228158396796903 ], [ 105.138802354474635, 16.190022498370698 ], [ 105.6, 15.7 ], [ 105.581115279940988, 15.638624659808249 ], [ 103.962858466600622, 15.371408370871247 ], [ 103.487686703117092, 16.228158396796903 ] ] ] } }
]
}
